[{"OBJECT_NAME":"STARLINK-32787","OBJECT_ID":"2025-018D","EPOCH":"2026-03-09T23:22:59.641824","MEAN_MOTION":15.30210617,"ECCENTRICITY":0.00012012,"INCLINATION":53.16,"RA_OF_ASC_NODE":308.1582,"ARG_OF_PERICENTER":76.7518,"MEAN_ANOMALY":283.3617,"EPHEMERIS_TYPE":0,"CLASSIFICATION_TYPE":"U","NORAD_CAT_ID":62809,"ELEMENT_SET_NO":999,"REV_AT_EPOCH":6321,"BSTAR":0.00082936007,"MEAN_MOTION_DOT":0.00024292,"MEAN_MOTION_DDOT":0},{"OBJECT_NAME":"OBJECT B","OBJECT_ID":"2025-313B","EPOCH":"2026-03-09T22:01:30.454176","MEAN_MOTION":14.73613198,"ECCENTRICITY":0.02934893,"INCLINATION":97.5206,"RA_OF_ASC_NODE":141.38,"ARG_OF_PERICENTER":298.1139,"MEAN_ANOMALY":59.0692,"EPHEMERIS_TYPE":0,"CLASSIFICATION_TYPE":"U","NORAD_CAT_ID":67249,"ELEMENT_SET_NO":999,"REV_AT_EPOCH":1051,"BSTAR":0.00024043091,"MEAN_MOTION_DOT":3.075e-5,"MEAN_MOTION_DDOT":0}]
